NORAD_CAT_ID,OBJECT_NAME,OBJECT_TYPE,EPOCH,MEAN_MOTION,ECCENTRICITY,INCLINATION,RA_OF_ASC_NODE,ARG_OF_PERICENTER,MEAN_ANOMALY,BSTAR,MEAN_MOTION_DOT,MEAN_MOTION_DDOT,TLE_LINE0,TLE_LINE1,TLE_LINE2,SEMIMAJOR_AXIS,PERIOD,APOGEE,PERIGEE,DECAYED
55772.0,STARLINK-5835,PAYLOAD,2024-04-04 13:26:47,14.98339244,0.0003163,70.0,199.7224,268.9072,91.1724,-0.00016556,-2.068e-05,0.0,0 STARLINK-5835,1 55772U 23028AH  24095.56027414 -.00002068  00000-0 -16556-3 0  9994,2 55772  70.0000 199.7224 0003163 268.9072  91.1724 14.98339244 61060,6950.164,96.106,574.228,569.831,0.0
55772.0,STARLINK-5835,PAYLOAD,2024-04-04 16:39:03,14.98340958,0.000309,70.0001,199.3857,267.8138,92.2668,-0.00013171,-1.665e-05,0.0,0 STARLINK-5835,1 55772U 23028AH  24095.69379129 -.00001665  00000-0 -13171-3 0  9993,2 55772  70.0001 199.3857 0003090 267.8138  92.2668 14.98340958 61084,6950.159,96.106,574.172,569.876,0.0
55772.0,STARLINK-5835,PAYLOAD,2024-04-05 00:39:43,14.98342283,0.0003112,70.0002,198.5443,270.1638,89.9165,-0.00014226,-1.791e-05,0.0,0 STARLINK-5835,1 55772U 23028AH  24096.02758791 -.00001791  00000-0 -14226-3 0  9999,2 55772  70.0002 198.5443 0003112 270.1638  89.9165 14.98342283 61138,6950.155,96.106,574.183,569.857,0.0
55772.0,STARLINK-5835,PAYLOAD,2024-04-05 13:28:47,14.9833968,0.0003042,70.0003,197.1977,267.4129,92.6682,9.2331e-05,1.009e-05,0.0,0 STARLINK-5835,1 55772U 23028AH  24096.56166163  .00001009  00000-0  92331-4 0  9998,2 55772  70.0003 197.1977 0003042 267.4129  92.6682 14.98339680 61213,6950.163,96.106,574.142,569.914,0.0
55772.0,STARLINK-5835,PAYLOAD,2024-04-05 16:41:03,14.9833946,0.0003057,70.0003,196.8611,267.595,92.4859,8.8622e-05,9.65e-06,0.0,0 STARLINK-5835,1 55772U 23028AH  24096.69518121  .00000965  00000-0  88622-4 0  9995,2 55772  70.0003 196.8611 0003057 267.5950  92.4859 14.98339460 61235,6950.164,96.106,574.153,569.904,0.0
55772.0,STARLINK-5835,PAYLOAD,2024-04-06 05:30:08,14.98329203,0.0003015,70.0003,195.5147,268.8736,91.2078,4.7566e-05,4.75e-06,0.0,0 STARLINK-5835,1 55772U 23028AH  24097.22926706  .00000475  00000-0  47566-4 0  9995,2 55772  70.0003 195.5147 0003015 268.8736  91.2078 14.98329203 61318,6950.195,96.107,574.156,569.965,0.0
55772.0,STARLINK-5835,PAYLOAD,2024-04-06 13:30:48,14.98345969,0.0003094,70.0003,194.6733,268.3165,91.764,-0.00025446,-3.129e-05,0.0,0 STARLINK-5835,1 55772U 23028AH  24097.56306433 -.00003129  00000-0 -25446-3 0  9994,2 55772  70.0003 194.6733 0003094 268.3165  91.7640 14.98345969 61369,6950.144,96.106,574.159,569.858,0.0
55772.0,STARLINK-5835,PAYLOAD,2024-04-07 10:20:34,14.9832594,0.0003135,69.9999,192.4851,272.4327,87.6474,-0.00011366,-1.449e-05,0.0,0 STARLINK-5835,1 55772U 23028AH  24098.43095553 -.00001449  00000-0 -11366-3 0  9998,2 55772  69.9999 192.4851 0003135 272.4327  87.6474 14.98325940 61499,6950.205,96.107,574.249,569.892,0.0
55772.0,STARLINK-5835,PAYLOAD,2024-04-07 23:09:40,14.98316734,0.000326,69.9996,191.1392,268.4137,91.6649,-0.00022249,-2.746e-05,0.0,0 STARLINK-5835,1 55772U 23028AH  24098.96504736 -.00002746  00000-0 -22249-3 0  9997,2 55772  69.9996 191.1392 0003260 268.4137  91.6649 14.98316734 61574,6950.234,96.108,574.365,569.833,0.0
55772.0,STARLINK-5835,PAYLOAD,2024-04-08 10:22:36,14.98314685,0.000316,69.9987,189.9585,270.0863,89.9934,-3.7787e-05,-5.44e-06,0.0,0 STARLINK-5835,1 55772U 23028AH  24099.43236819 -.00000544  00000-0 -37787-4 0  9992,2 55772  69.9987 189.9585 0003160 270.0863  89.9934 14.98314685 61645,6950.24,96.108,574.302,569.909,0.0
55772.0,STARLINK-5835,PAYLOAD,2024-04-08 23:11:40,14.983279,0.0003215,69.9992,188.6134,272.7686,87.3105,8.6616e-05,9.41e-06,0.0,0 STARLINK-5835,1 55772U 23028AH  24099.96643947  .00000941  00000-0  86616-4 0  9998,2 55772  69.9992 188.6134 0003215 272.7686  87.3105 14.98327900 61725,6950.199,96.107,574.299,569.83,0.0
55772.0,STARLINK-5835,PAYLOAD,2024-04-09 05:36:13,14.98312403,0.0002944,70.0,187.9409,271.9675,88.1146,0.00015216,1.722e-05,0.0,0 STARLINK-5835,1 55772U 23028AH  24100.23348869  .00001722  00000-0  15216-3 0  9991,2 55772  70.0000 187.9409 0002944 271.9675  88.1146 14.98312403 61762,6950.247,96.108,574.158,570.066,0.0
55772.0,STARLINK-5835,PAYLOAD,2024-04-09 12:00:45,14.98313815,0.0002963,70.0003,187.2681,271.0503,89.0317,0.00015917,1.806e-05,0.0,0 STARLINK-5835,1 55772U 23028AH  24100.50053074  .00001806  00000-0  15917-3 0  9993,2 55772  70.0003 187.2681 0002963 271.0503  89.0317 14.98313815 61805,6950.243,96.108,574.167,570.049,0.0
55772.0,STARLINK-5835,PAYLOAD,2024-04-09 23:13:42,14.98326575,0.0002853,70.0009,186.0899,272.2869,87.7964,5.1579e-05,5.22e-06,0.0,0 STARLINK-5835,1 55772U 23028AH  24100.96785019  .00000522  00000-0  51579-4 0  9993,2 55772  70.0009 186.0899 0002853 272.2869  87.7964 14.98326575 61872,6950.203,96.107,574.051,570.086,0.0
55772.0,STARLINK-5835,PAYLOAD,2024-04-10 12:02:45,14.98342698,0.0003091,70.0001,184.743,270.8206,89.2598,0.00016154,1.836e-05,0.0,0 STARLINK-5835,1 55772U 23028AH  24101.50191540  .00001836  00000-0  16154-3 0  9992,2 55772  70.0001 184.7430 0003091 270.8206  89.2598 14.98342698 61957,6950.154,96.106,574.167,569.87,0.0
55772.0,STARLINK-5835,PAYLOAD,2024-04-10 15:15:01,14.98342685,0.0003098,70.0001,184.4063,270.8605,89.22,0.00015578,1.767e-05,0.0,0 STARLINK-5835,1 55772U 23028AH  24101.63543467  .00001767  00000-0  15578-3 0  9997,2 55772  70.0001 184.4063 0003098 270.8605  89.2200 14.98342685 61974,6950.154,96.106,574.172,569.866,0.0
55772.0,STARLINK-5835,PAYLOAD,2024-04-11 12:04:45,14.98343177,0.0003158,70.0002,182.2181,270.1089,89.9708,0.00019897,2.283e-05,0.0,0 STARLINK-5835,1 55772U 23028AH  24102.50330833  .00002283  00000-0  19897-3 0  9997,2 55772  70.0002 182.2181 0003158 270.1089  89.9708 14.98343177 62101,6950.152,96.106,574.212,569.822,0.0
55772.0,STARLINK-5835,PAYLOAD,2024-04-11 13:40:53,14.98343501,0.0003159,70.0002,182.0498,270.1099,89.9698,0.00019997,2.295e-05,0.0,0 STARLINK-5835,1 55772U 23028AH  24102.57006769  .00002295  00000-0  19997-3 0  9996,2 55772  70.0002 182.0498 0003159 270.1099  89.9698 14.98343501 62112,6950.151,96.106,574.212,569.821,0.0
55772.0,STARLINK-5835,PAYLOAD,2024-04-12 12:06:46,14.98339481,0.0003045,70.0006,179.6935,270.07,90.011,-8.3872e-05,-1.094e-05,0.0,0 STARLINK-5835,1 55772U 23028AH  24103.50470986 -.00001094  00000-0 -83872-4 0  9998,2 55772  70.0006 179.6935 0003045 270.0700  90.0110 14.98339481 62255,6950.164,96.106,574.145,569.912,0.0
55772.0,STARLINK-5835,PAYLOAD,2024-04-12 13:42:55,14.98338791,0.0003048,70.0006,179.5252,270.1061,89.9749,-9.087e-05,-1.177e-05,0.0,0 STARLINK-5835,1 55772U 23028AH  24103.57146999 -.00001177  00000-0 -90870-4 0  9997,2 55772  70.0006 179.5252 0003048 270.1061  89.9749 14.98338791 62269,6950.166,96.106,574.149,569.912,0.0
55772.0,STARLINK-5835,PAYLOAD,2024-04-12 15:19:03,14.98339127,0.0003048,70.0006,179.3569,270.1607,89.9203,-8.6401e-05,-1.124e-05,0.0,0 STARLINK-5835,1 55772U 23028AH  24103.63822918 -.00001124  00000-0 -86401-4 0  9993,2 55772  70.0006 179.3569 0003048 270.1607  89.9203 14.98339127 62274,6950.165,96.106,574.148,569.911,0.0
55772.0,STARLINK-5835,PAYLOAD,2024-04-13 12:08:48,14.9833209,0.000289,70.0011,177.1713,263.8312,96.2518,-0.00013342,-1.685e-05,0.0,0 STARLINK-5835,1 55772U 23028AH  24104.50611193 -.00001685  00000-0 -13342-3 0  9996,2 55772  70.0011 177.1713 0002890 263.8312  96.2518 14.98332090 62400,6950.186,96.107,574.06,570.043,0.0
55772.0,STARLINK-5835,PAYLOAD,2024-04-13 13:44:56,14.98331945,0.0002887,70.0011,177.0031,263.8467,96.2363,-0.00013249,-1.674e-05,0.0,0 STARLINK-5835,1 55772U 23028AH  24104.57287187 -.00001674  00000-0 -13249-3 0  9999,2 55772  70.0011 177.0031 0002887 263.8467  96.2363 14.98331945 62416,6950.187,96.107,574.058,570.045,0.0
55772.0,STARLINK-5835,PAYLOAD,2024-04-14 12:10:48,14.98335737,0.000292,70.001,174.6459,266.9236,93.1589,0.00010258,1.131e-05,0.0,0 STARLINK-5835,1 55772U 23028AH  24105.50750149  .00001131  00000-0  10258-3 0  9999,2 55772  70.0010 174.6459 0002920 266.9236  93.1589 14.98335737 62552,6950.175,96.107,574.07,570.011,0.0
55772.0,STARLINK-5835,PAYLOAD,2024-04-14 13:46:55,14.9833869,0.0003067,70.0005,174.4772,267.6503,92.4304,0.00012646,1.417e-05,0.0,0 STARLINK-5835,1 55772U 23028AH  24105.57425837  .00001417  00000-0  12646-3 0  9999,2 55772  70.0005 174.4772 0003067 267.6503  92.4304 14.98338690 62569,6950.166,96.106,574.163,569.899,0.0
55772.0,STARLINK-5835,PAYLOAD,2024-04-15 12:12:49,14.9832875,0.0002693,70.0013,172.1216,253.181,106.9054,0.00010078,1.11e-05,0.0,0 STARLINK-5835,1 55772U 23028AH  24106.50890341  .00001110  00000-0  10078-3 0  9996,2 55772  70.0013 172.1216 0002693 253.1810 106.9054 14.98328750 62706,6950.197,96.107,573.933,570.19,0.0
55772.0,STARLINK-5835,PAYLOAD,2024-04-15 13:48:57,14.98329708,0.0002782,70.0013,171.9534,258.5606,101.524,9.3873e-05,1.027e-05,0.0,0 STARLINK-5835,1 55772U 23028AH  24106.57566305  .00001027  00000-0  93873-4 0  9995,2 55772  70.0013 171.9534 0002782 258.5606 101.5240 14.98329708 62710,6950.194,96.107,573.992,570.125,0.0
55772.0,STARLINK-5835,PAYLOAD,2024-04-16 12:14:49,14.98339287,0.000292,70.0003,169.5946,266.419,93.6636,5.2329e-05,5.32e-06,0.0,0 STARLINK-5835,1 55772U 23028AH  24107.51029590  .00000532  00000-0  52329-4 0  9991,2 55772  70.0003 169.5946 0002920 266.4190  93.6636 14.98339287 62857,6950.164,96.106,574.059,570.0,0.0
55772.0,STARLINK-5835,PAYLOAD,2024-04-16 13:50:57,14.98340555,0.0002719,70.0005,169.4264,259.8775,100.2077,6.8974e-05,7.3e-06,0.0,0 STARLINK-5835,1 55772U 23028AH  24107.57705421  .00000730  00000-0  68974-4 0  9994,2 55772  70.0005 169.4264 0002719 259.8775 100.2077 14.98340555 62867,6950.16,96.106,573.915,570.136,0.0
55772.0,STARLINK-5835,PAYLOAD,2024-04-17 04:16:11,14.98320036,0.0002362,70.0024,167.9123,255.7648,104.3249,6.9712e-05,7.39e-06,0.0,0 STARLINK-5835,1 55772U 23028AH  24108.17790672  .00000739  00000-0  69712-4 0  9993,2 55772  70.0024 167.9123 0002362 255.7648 104.3249 14.98320036 62951,6950.224,96.108,573.73,570.447,0.0
